     2.100          NAVIGATION                              RINEX VERSION / TYPE
fic2rin                                 04/14/2017 01:37:42 PGM / RUN BY / DATE
                                                            END OF HEADER
24 17  4 13  6  0  0.0 -.332961790264D-04 -.454747350886D-12  .000000000000D+00
     .740000000000D+02  .798125000000D+02  .493270546698D-08 -.209626988994D+01
     .414438545704D-05  .564601295628D-02  .355951488018D-05  .515369665718D+04
     .367200000000D+06 -.465661287308D-07  .146404536444D+01 -.782310962677D-07
     .945584736520D+00  .303906250000D+03  .484621708908D+00 -.845106630655D-08
     .349300264044D-09  .100000000000D+01  .194400000000D+04  .000000000000D+00
     .240000000000D+01  .000000000000D+00  .232830643654D-08  .740000000000D+02
     .360006000000D+06  .400000000000D+01
25 17  4 13  6  0  0.0 -.369134359062D-03 -.659383658785D-11  .000000000000D+00
     .460000000000D+02 -.939687500000D+02  .415053002909D-08  .222815472409D+01
    -.485964119434D-05  .644777377602D-02  .504031777382D-05  .515360833740D+04
     .367200000000D+06 -.447034835815D-07  .254571580678D+01 -.689178705215D-07
     .977402341622D+00  .291500000000D+03  .788089953144D+00 -.807676500111D-08
    -.250724729406D-09  .100000000000D+01  .194400000000D+04  .000000000000D+00
     .240000000000D+01  .000000000000D+00  .558793544769D-08  .460000000000D+02
     .360006000000D+06  .400000000000D+01
26 17  4 13  6  0  0.0 -.513703096658D-03  .261479726760D-11  .000000000000D+00
     .340000000000D+02 -.875312500000D+02  .461376361035D-08  .165218877165D+01
    -.455230474472D-05  .181860278826D-02  .478886067867D-05  .515368568420D+04
     .367200000000D+06  .111758708954D-07  .253108089135D+01 -.130385160446D-07
     .959185068971D+00  .286031250000D+03  .567311643607D-01 -.828034490960D-08
    -.259653672761D-09  .100000000000D+01  .194400000000D+04  .000000000000D+00
     .240000000000D+01  .000000000000D+00  .698491930962D-08  .340000000000D+02
     .360006000000D+06  .400000000000D+01
27 17  4 13  6  0  0.0  .239927321672D-03  .636646291241D-11  .000000000000D+00
     .500000000000D+02 -.266250000000D+02  .400909556635D-08 -.815689898130D-01
    -.134855508804D-05  .467862945516D-02  .111255794764D-04  .515366654778D+04
     .367200000000D+06  .521540641785D-07 -.269819043316D+01  .186264514923D-08
     .974743354888D+00  .174093750000D+03  .310913167467D+00 -.776710924556D-08
     .257510726355D-09  .100000000000D+01  .194400000000D+04  .000000000000D+00
     .240000000000D+01  .000000000000D+00  .186264514923D-08  .500000000000D+02
     .360006000000D+06  .400000000000D+01
28 17  4 13  6  0  0.0  .604534056038D-03  .295585778076D-11  .000000000000D+00
     .630000000000D+02 -.923437500000D+02  .405445459859D-08  .715036887425D+00
    -.496208667755D-05  .197589693125D-01  .643730163574D-05  .515364535904D+04
     .367200000000D+06 -.271946191788D-06  .262391029224D+01 -.894069671631D-07
     .988767085089D+00  .273250000000D+03 -.157188186614D+01 -.829070248389D-08
    -.360014996070D-09  .100000000000D+01  .194400000000D+04  .000000000000D+00
     .485000000000D+01  .000000000000D+00 -.111758708954D-07  .630000000000D+02
     .360006000000D+06  .400000000000D+01
29 17  4 13  6  0  0.0  .612966716290D-03 -.318323145621D-11  .000000000000D+00
     .104000000000D+03 -.229375000000D+02  .384087427354D-08  .183047518168D+01
    -.133179128170D-05  .706396996975D-03  .119488686323D-04  .515365212440D+04
     .367200000000D+06  .335276126862D-07 -.263641049859D+01  .577419996262D-07
     .980907382158D+00  .157406250000D+03  .940339281363D-01 -.762960351790D-08
     .342157109360D-09  .100000000000D+01  .194400000000D+04  .000000000000D+00
     .340000000000D+01  .000000000000D+00 -.102445483208D-07  .104000000000D+03
     .360006000000D+06  .400000000000D+01
30 17  4 13  6  0  0.0  .159017741680D-03 -.682121026330D-12  .000000000000D+00
     .600000000000D+02  .671250000000D+02  .500735143343D-08 -.288565219955D+01
     .350922346115D-05  .262850301806D-02  .262819230556D-05  .515369153976D+04
     .367200000000D+06  .242143869400D-07  .155635272886D+01 -.353902578354D-07
     .948239761672D+00  .323312500000D+03  .305438982581D+01 -.854321300197D-08
     .262153776900D-09  .100000000000D+01  .194400000000D+04  .000000000000D+00
     .240000000000D+01  .000000000000D+00  .372529029846D-08  .600000000000D+02
     .360006000000D+06  .400000000000D+01
31 17  4 13  6  0  0.0  .207557342947D-03 -.238742359215D-11  .000000000000D+00
     .840000000000D+02  .680000000000D+02  .451447376024D-08 -.313811724300D+01
     .353716313839D-05  .846454966813D-02  .347010791302D-05  .515368103027D+04
     .367200000000D+06 -.726431608200D-07  .152753163788D+01  .689178705215D-07
     .967260057852D+00  .318187500000D+03 -.261823538138D+00 -.818498379457D-08
     .216080429189D-09  .100000000000D+01  .194400000000D+04  .000000000000D+00
     .240000000000D+01  .000000000000D+00 -.135041773319D-07  .840000000000D+02
     .360006000000D+06  .400000000000D+01
32 17  4 13  6  0  0.0 -.383304897696D-03 -.117097442853D-10  .000000000000D+00
     .490000000000D+02  .500937500000D+02  .432482300338D-08  .621352472362D+00
     .268034636974D-05  .101328617893D-02  .111181288958D-04  .515372036743D+04
     .367200000000D+06  .558793544769D-08  .441058824625D+00  .521540641785D-07
     .958662084535D+00  .163656250000D+03 -.268420178666D+01 -.789640034534D-08
    -.139291516336D-09  .100000000000D+01  .194400000000D+04  .000000000000D+00
     .240000000000D+01  .000000000000D+00  .465661287308D-09  .490000000000D+02
     .360006000000D+06  .400000000000D+01
28 17  4 13  5 59 44.0  .604543369263D-03  .306954461848D-11  .000000000000D+00
     .100000000000D+01 -.923437500000D+02  .405409744086D-08  .712703259523D+00
    -.496208667755D-05  .197589683812D-01  .643730163574D-05  .515364536095D+04
     .367184000000D+06 -.271946191788D-06  .262391043121D+01 -.894069671631D-07
     .988767092404D+00  .273250000000D+03 -.157188204022D+01 -.829070248389D-08
    -.360014996070D-09  .100000000000D+01  .194400000000D+04  .000000000000D+00
     .240000000000D+01  .000000000000D+00 -.111758708954D-07  .100000000000D+01
     .361956000000D+06  .400000000000D+01
12 17  4 13  5 59 44.0  .385547988117D-03 -.682121026330D-12  .000000000000D+00
     .110000000000D+02 -.101281250000D+03  .384623163956D-08  .278570478349D+01
    -.523217022419D-05  .665963953361D-02  .587105751038D-05  .515355284882D+04
     .367184000000D+06  .298023223877D-07  .260044925117D+01 -.447034835815D-07
     .989489640810D+00  .281343750000D+03  .832574177382D+00 -.782711174491D-08
    -.270368404786D-09  .100000000000D+01  .194400000000D+04  .000000000000D+00
     .240000000000D+01  .000000000000D+00 -.125728547573D-07  .110000000000D+02
     .362286000000D+06  .400000000000D+01
31 17  4 13  5 59 44.0  .207561068237D-03 -.238742359215D-11  .000000000000D+00
     .110000000000D+02  .680000000000D+02  .451447376024D-08 -.314045036619D+01
     .353716313839D-05  .846455327701D-02  .347010791302D-05  .515368102646D+04
     .367184000000D+06 -.726431608200D-07  .152753173297D+01  .689178705215D-07
     .967260041760D+00  .318187500000D+03 -.261824104288D+00 -.818498379457D-08
     .216080429189D-09  .100000000000D+01  .194400000000D+04  .000000000000D+00
     .240000000000D+01  .000000000000D+00 -.135041773319D-07  .110000000000D+02
     .362406000000D+06  .400000000000D+01
 7 17  4 13  5 59 44.0  .362944323570D-03 -.409272615798D-11  .000000000000D+00
     .000000000000D+00  .687500000000D+02  .456661878943D-08 -.289630926371D+01
     .347569584846D-05  .102905050153D-01  .320561230183D-05  .515374632645D+04
     .367184000000D+06  .111758708954D-07  .151676910903D+01 -.745058059692D-07
     .962511080519D+00  .320625000000D+03 -.260791209808D+01 -.816676875013D-08
     .312870175156D-09  .100000000000D+01  .194400000000D+04  .000000000000D+00
     .240000000000D+01  .000000000000D+00 -.111758708954D-07  .000000000000D+00
     .365076000000D+06  .400000000000D+01
 4 17  4 13  5 59 44.0  .181701034307D-05  .568434188608D-12  .000000000000D+00
     .700000000000D+01 -.846875000000D+02  .540593946479D-08  .951224923548D+00
    -.446103513241D-05  .914000638295D-02  .539980828762D-05  .515374294090D+04
     .367184000000D+06 -.875443220139D-07  .256880068479D+01  .558793544769D-08
     .982220185825D+00  .288125000000D+03  .890928035346D+00 -.812140971788D-08
    -.343942898031D-09  .100000000000D+01  .194400000000D+04  .000000000000D+00
     .240000000000D+01  .630000000000D+02 -.195577740669D-07  .700000000000D+01
     .365106000000D+06  .400000000000D+01
29 17  4 13  5 59 44.0  .612971838564D-03 -.306954461848D-11  .000000000000D+00
     .900000000000D+01 -.229375000000D+02  .384087427354D-08  .182814600983D+01
    -.133179128170D-05  .706398859620D-03  .119488686323D-04  .515365212250D+04
     .367184000000D+06  .335276126862D-07 -.263641039033D+01  .577419996262D-07
     .980907377770D+00  .157406250000D+03  .940294018677D-01 -.762960351790D-08
     .342157109360D-09  .100000000000D+01  .194400000000D+04  .000000000000D+00
     .240000000000D+01  .000000000000D+00 -.977888703346D-08  .900000000000D+01
     .365106000000D+06  .400000000000D+01
 4 17  4 13  7 59 44.0  .182073563337D-05  .568434188608D-12  .000000000000D+00
     .800000000000D+01 -.942500000000D+02  .531093550750D-08  .200121838817D+01
    -.492297112942D-05  .913990032859D-02  .523403286934D-05  .515374551201D+04
     .374384000000D+06 -.838190317154D-07  .256874207298D+01 -.121071934700D-06
     .982218126036D+00  .291968750000D+03  .891078960215D+00 -.803604901941D-08
    -.302869758598D-09  .100000000000D+01  .194400000000D+04  .000000000000D+00
     .240000000000D+01  .630000000000D+02 -.195577740669D-07  .800000000000D+01
     .367206000000D+06  .400000000000D+01
